GLOBALSTAR M063         
1 26081U 00008A   25249.29607091 -.00000054  00000+0  41308-3 0  9999
2 26081  51.9931 257.9618 0004618 112.2198 260.6963 11.86175831167207
GLOBALSTAR M062         
1 26082U 00008B   25249.23686909 -.00000084  00000+0  10138-3 0  9999
2 26082  51.9830 217.4387 0007054 287.0575 175.4304 12.43471690506707
GLOBALSTAR M060         
1 26083U 00008C   25249.26630887 -.00000040  00000+0  50405-3 0  9990
2 26083  52.0008 188.8297 0003296 296.9698 210.2012 12.17665979162244
GLOBALSTAR M064         
1 26084U 00008D   25249.29948237 -.00000064  00000+0  27560-3 0  9997
2 26084  52.0066 355.8233 0001484 188.6682 171.4125 11.88535687176744
GLOBALSTAR M065         
1 31571U 07020A   25249.03443719 -.00000095  00000+0  48272-4 0  9990
2 31571  51.9921 340.1944 0010657 126.5532  46.5803 12.62010381843616
GLOBALSTAR M069         
1 31573U 07020C   25249.28844469 -.00000053  00000+0  36295-3 0  9991
2 31573  52.0062 335.6671 0001067 279.8679 114.6778 12.23461548844050
GLOBALSTAR M072         
1 31574U 07020D   25249.05484263 -.00000063  00000+0  29504-3 0  9995
2 31574  51.9918 136.6815 0001541  96.3466  42.9272 11.91651431841102
GLOBALSTAR M071         
1 31576U 07020F   25249.05175950 -.00000102  00000+0 -10881-3 0  9990
2 31576  52.0091   4.2339 0000258 216.1933 316.5256 12.18257885504792
